{
  "norad_id": 61532,
  "name": "STARLINK-11354 [DTC]",
  "history": [
    {
      "epoch": "2026-03-28T10:56:53.812896Z",
      "apogee_km": 360.8166120318956,
      "perigee_km": 358.67639071651956,
      "latitude_deg": 4.975432582531098e-05,
      "longitude_deg": 153.73885097444554,
      "height_km": 360.2162801717359,
      "semi_major_axis_km": 6737.883501374207,
      "eccentricity": 0.00015882,
      "inclination_deg": 53.1598,
      "raan_deg": 143.8394,
      "arg_perigee_deg": 65.5226,
      "mean_anomaly_deg": 294.5958,
      "mean_motion_rev_day": 15.69703098
    },
    {
      "epoch": "2026-03-29T03:45:24.801120Z",
      "apogee_km": 360.5808982814515,
      "perigee_km": 358.9085560367703,
      "latitude_deg": 8.675251757531081e-06,
      "longitude_deg": -102.53330235621414,
      "height_km": 360.61791012789934,
      "semi_major_axis_km": 6737.881727159111,
      "eccentricity": 0.0001241,
      "inclination_deg": 53.1593,
      "raan_deg": 140.3867,
      "arg_perigee_deg": 87.2439,
      "mean_anomaly_deg": 272.8721,
      "mean_motion_rev_day": 15.69703718
    },
    {
      "epoch": "2026-03-29T08:20:29.042304Z",
      "apogee_km": 360.5049878547243,
      "perigee_km": 359.0649591705451,
      "latitude_deg": 2.1095963078092865e-05,
      "longitude_deg": -172.43204380019964,
      "height_km": 360.5531252176854,
      "semi_major_axis_km": 6737.921973512634,
      "eccentricity": 0.00010686,
      "inclination_deg": 53.159,
      "raan_deg": 139.4439,
      "arg_perigee_deg": 78.3446,
      "mean_anomaly_deg": 281.7692,
      "mean_motion_rev_day": 15.69689654
    },
    {
      "epoch": "2026-03-30T13:22:28.260192Z",
      "apogee_km": 360.41904563470234,
      "perigee_km": 359.0674268593111,
      "latitude_deg": -5.568896273806169e-05,
      "longitude_deg": 104.91771106088184,
      "height_km": 360.629837570472,
      "semi_major_axis_km": 6737.880236247007,
      "eccentricity": 0.0001003,
      "inclination_deg": 53.159,
      "raan_deg": 133.4828,
      "arg_perigee_deg": 87.7031,
      "mean_anomaly_deg": 272.4101,
      "mean_motion_rev_day": 15.69704239
    },
    {
      "epoch": "2026-03-30T19:29:12.101568Z",
      "apogee_km": 360.3624581711838,
      "perigee_km": 359.1015333673158,
      "latitude_deg": 2.7803706380364478e-05,
      "longitude_deg": 11.729182920143101,
      "height_km": 360.59035184922607,
      "semi_major_axis_km": 6737.8689957692495,
      "eccentricity": 9.357e-05,
      "inclination_deg": 53.1593,
      "raan_deg": 132.2279,
      "arg_perigee_deg": 84.9546,
      "mean_anomaly_deg": 275.1579,
      "mean_motion_rev_day": 15.69708167
    },
    {
      "epoch": "2026-03-31T07:42:41.717952Z",
      "apogee_km": 360.69569027700436,
      "perigee_km": 358.9183554026595,
      "latitude_deg": -3.169469664049734e-05,
      "longitude_deg": -174.66122087156415,
      "height_km": 360.50438930351675,
      "semi_major_axis_km": 6737.944022839832,
      "eccentricity": 0.00013189,
      "inclination_deg": 53.1591,
      "raan_deg": 129.713,
      "arg_perigee_deg": 75.9362,
      "mean_anomaly_deg": 284.1802,
      "mean_motion_rev_day": 15.69681949
    },
    {
      "epoch": "2026-04-01T18:51:24.172416Z",
      "apogee_km": 360.4733804964644,
      "perigee_km": 358.9923966949509,
      "latitude_deg": 5.170864812320075e-05,
      "longitude_deg": 9.504690540252264,
      "height_km": 360.7080882965028,
      "semi_major_axis_km": 6737.869888595707,
      "eccentricity": 0.0001099,
      "inclination_deg": 53.158,
      "raan_deg": 122.4991,
      "arg_perigee_deg": 94.7845,
      "mean_anomaly_deg": 265.3299,
      "mean_motion_rev_day": 15.69707855
    },
    {
      "epoch": "2026-04-02T08:36:32.785920Z",
      "apogee_km": 360.44051621650124,
      "perigee_km": 358.974496008861,
      "latitude_deg": -3.57759380935293e-05,
      "longitude_deg": 159.8224455799652,
      "height_km": 360.3335090507294,
      "semi_major_axis_km": 6737.84450611268,
      "eccentricity": 0.00010879,
      "inclination_deg": 53.1588,
      "raan_deg": 119.6676,
      "arg_perigee_deg": 66.8929,
      "mean_anomaly_deg": 293.2203,
      "mean_motion_rev_day": 15.69716725
    }
  ]
}